{
  "links" : {
    "next" : "https://api.nasa.gov/neo/rest/v1/feed?start_date=2006-10-23&end_date=2006-10-23&detailed=true&api_key=t0TVs3DtDT2H8Oy2Zy8m2eVrNsAVKAexjcZXUckd",
    "prev" : "https://api.nasa.gov/neo/rest/v1/feed?start_date=2006-10-21&end_date=2006-10-21&detailed=true&api_key=t0TVs3DtDT2H8Oy2Zy8m2eVrNsAVKAexjcZXUckd",
    "self" : "https://api.nasa.gov/neo/rest/v1/feed?start_date=2006-10-22&end_date=2006-10-22&detailed=true&api_key=t0TVs3DtDT2H8Oy2Zy8m2eVrNsAVKAexjcZXUckd"
  },
  "element_count" : 11,
  "near_earth_objects" : {
    "2006-10-22" : [ {
      "links" : {
        "self" : "https://api.nasa.gov/neo/rest/v1/neo/3359271?api_key=t0TVs3DtDT2H8Oy2Zy8m2eVrNsAVKAexjcZXUckd"
      },
      "neo_reference_id" : "3359271",
      "name" : "(2006 WU1)",
      "nasa_jpl_url" : "http://ssd.jpl.nasa.gov/sbdb.cgi?sstr=3359271",
      "absolute_magnitude_h" : 22.8,
      "estimated_diameter" : {
        "kilometers" : {
          "estimated_diameter_min" : 0.0732073989,
          "estimated_diameter_max" : 0.1636967205
        },
        "meters" : {
          "estimated_diameter_min" : 73.2073989347,
          "estimated_diameter_max" : 163.696720474
        },
        "miles" : {
          "estimated_diameter_min" : 0.0454889547,
          "estimated_diameter_max" : 0.1017163949
        },
        "feet" : {
          "estimated_diameter_min" : 240.181762721,
          "estimated_diameter_max" : 537.0627483999
        }
      },
      "is_potentially_hazardous_asteroid" : false,
      "close_approach_data" : [ {
        "close_approach_date" : "2006-10-22",
        "epoch_date_close_approach" : 1161500400000,
        "relative_velocity" : {
          "kilometers_per_second" : "8.1156205835",
          "kilometers_per_hour" : "29216.2341004786",
          "miles_per_hour" : "18153.8316831557"
        },
        "miss_distance" : {
          "astronomical" : "0.1706803996",
          "lunar" : "66.3946762085",
          "kilometers" : "25533426",
          "miles" : "15865735"
        },
        "orbiting_body" : "Earth"
      } ],
      "orbital_data" : {
        "orbit_id" : "7",
        "orbit_determination_date" : "2017-04-06 09:07:36",
        "orbit_uncertainty" : "9",
        "minimum_orbit_intersection" : ".14292",
        "jupiter_tisserand_invariant" : "3.433",
        "epoch_osculation" : "2454060.5",
        "eccentricity" : ".5091656694807595",
        "semi_major_axis" : "2.253016021338226",
        "inclination" : "7.475310212045758",
        "ascending_node_longitude" : "60.13100269416675",
        "orbital_period" : "1235.221513143591",
        "perihelion_distance" : "1.105857610482671",
        "perihelion_argument" : "311.0788644199577",
        "aphelion_distance" : "3.400174432193781",
        "perihelion_time" : "2454018.957697812910",
        "mean_anomaly" : "12.1073253891862",
        "mean_motion" : ".2914457011712934",
        "equinox" : "J2000"
      }
    }, {
      "links" : {
        "self" : "https://api.nasa.gov/neo/rest/v1/neo/2136897?api_key=t0TVs3DtDT2H8Oy2Zy8m2eVrNsAVKAexjcZXUckd"
      },
      "neo_reference_id" : "2136897",
      "name" : "136897 (1998 HJ41)",
      "nasa_jpl_url" : "http://ssd.jpl.nasa.gov/sbdb.cgi?sstr=2136897",
      "absolute_magnitude_h" : 18.5,
      "estimated_diameter" : {
        "kilometers" : {
          "estimated_diameter_min" : 0.5303407233,
          "estimated_diameter_max" : 1.1858779086
        },
        "meters" : {
          "estimated_diameter_min" : 530.3407233187,
          "estimated_diameter_max" : 1185.8779085771
        },
        "miles" : {
          "estimated_diameter_min" : 0.3295383456,
          "estimated_diameter_max" : 0.7368701419
        },
        "feet" : {
          "estimated_diameter_min" : 1739.963058693,
          "estimated_diameter_max" : 3890.675677576
        }
      },
      "is_potentially_hazardous_asteroid" : false,
      "close_approach_data" : [ {
        "close_approach_date" : "2006-10-22",
        "epoch_date_close_approach" : 1161500400000,
        "relative_velocity" : {
          "kilometers_per_second" : "22.6536550563",
          "kilometers_per_hour" : "81553.158202572",
          "miles_per_hour" : "50673.9609953704"
        },
        "miss_distance" : {
          "astronomical" : "0.4879613126",
          "lunar" : "189.8169555664",
          "kilometers" : "72997976",
          "miles" : "45358840"
        },
        "orbiting_body" : "Earth"
      } ],
      "orbital_data" : {
        "orbit_id" : "71",
        "orbit_determination_date" : "2017-05-18 06:21:13",
        "orbit_uncertainty" : "0",
        "minimum_orbit_intersection" : ".264165",
        "jupiter_tisserand_invariant" : "4.607",
        "epoch_osculation" : "2458000.5",
        "eccentricity" : ".124713567067601",
        "semi_major_axis" : "1.363377021989517",
        "inclination" : "38.87906633696712",
        "ascending_node_longitude" : "211.8724097760373",
        "orbital_period" : "581.4633983991109",
        "perihelion_distance" : "1.193345410319202",
        "perihelion_argument" : "120.1228433492383",
        "aphelion_distance" : "1.533408633659833",
        "perihelion_time" : "2458057.139032376115",
        "mean_anomaly" : "324.933215553138",
        "mean_motion" : ".6191275340651785",
        "equinox" : "J2000"
      }
    }, {
      "links" : {
        "self" : "https://api.nasa.gov/neo/rest/v1/neo/2450649?api_key=t0TVs3DtDT2H8Oy2Zy8m2eVrNsAVKAexjcZXUckd"
      },
      "neo_reference_id" : "2450649",
      "name" : "450649 (2006 UY64)",
      "nasa_jpl_url" : "http://ssd.jpl.nasa.gov/sbdb.cgi?sstr=2450649",
      "absolute_magnitude_h" : 19.5,
      "estimated_diameter" : {
        "kilometers" : {
          "estimated_diameter_min" : 0.3346223745,
          "estimated_diameter_max" : 0.7482383761
        },
        "meters" : {
          "estimated_diameter_min" : 334.6223744549,
          "estimated_diameter_max" : 748.2383760735
        },
        "miles" : {
          "estimated_diameter_min" : 0.2079246394,
          "estimated_diameter_max" : 0.464933628
        },
        "feet" : {
          "estimated_diameter_min" : 1097.8424710066,
          "estimated_diameter_max" : 2454.8503937571
        }
      },
      "is_potentially_hazardous_asteroid" : false,
      "close_approach_data" : [ {
        "close_approach_date" : "2006-10-22",
        "epoch_date_close_approach" : 1161500400000,
        "relative_velocity" : {
          "kilometers_per_second" : "14.3869750928",
          "kilometers_per_hour" : "51793.1103340163",
          "miles_per_hour" : "32182.2245850447"
        },
        "miss_distance" : {
          "astronomical" : "0.0997969829",
          "lunar" : "38.8210258484",
          "kilometers" : "14929416",
          "miles" : "9276709"
        },
        "orbiting_body" : "Earth"
      } ],
      "orbital_data" : {
        "orbit_id" : "68",
        "orbit_determination_date" : "2017-04-06 09:20:11",
        "orbit_uncertainty" : "0",
        "minimum_orbit_intersection" : ".0543609",
        "jupiter_tisserand_invariant" : "6.335",
        "epoch_osculation" : "2458000.5",
        "eccentricity" : ".1572953217107533",
        "semi_major_axis" : ".9315949656446578",
        "inclination" : "26.21613896203354",
        "ascending_node_longitude" : "30.79596170964842",
        "orbital_period" : "328.4272064398105",
        "perihelion_distance" : ".7850594358194631",
        "perihelion_argument" : "210.8981090369046",
        "aphelion_distance" : "1.078130495469853",
        "perihelion_time" : "2457852.812599097322",
        "mean_anomaly" : "161.8850791970179",
        "mean_motion" : "1.096133307293395",
        "equinox" : "J2000"
      }
    } ]
  }
}